[
  {
    "OBJECT_NAME": "STARLINK-5586",
    "OBJECT_ID": "2023-013AX",
    "EPOCH": "2025-06-21T14:41:38.110560",
    "MEAN_MOTION": 15.0253065,
    "ECCENTRICITY": 0.0001794,
    "INCLINATION": 43.0081,
    "RA_OF_ASC_NODE": 266.1863,
    "ARG_OF_PERICENTER": 274.0891,
    "MEAN_ANOMALY": 85.9746,
    "EPHEMERIS_TYPE": 0,
    "CLASSIFICATION_TYPE": "U",
    "NORAD_CAT_ID": 55376,
    "ELEMENT_SET_NO": 999,
    "REV_AT_EPOCH": 13301,
    "BSTAR": -6.3761e-05,
    "MEAN_MOTION_DOT": -1.065e-05,
    "MEAN_MOTION_DDOT": 0
  },
  {
    "OBJECT_NAME": "STARLINK-5567",
    "OBJECT_ID": "2023-013AY",
    "EPOCH": "2025-06-21T14:59:54.054816",
    "MEAN_MOTION": 15.02533505,
    "ECCENTRICITY": 0.0001388,
    "INCLINATION": 43.0042,
    "RA_OF_ASC_NODE": 291.4329,
    "ARG_OF_PERICENTER": 268.0421,
    "MEAN_ANOMALY": 92.0262,
    "EPHEMERIS_TYPE": 0,
    "CLASSIFICATION_TYPE": "U",
    "NORAD_CAT_ID": 55377,
    "ELEMENT_SET_NO": 999,
    "REV_AT_EPOCH": 13272,
    "BSTAR": -2.6115e-05,
    "MEAN_MOTION_DOT": -5.56e-06,
    "MEAN_MOTION_DDOT": 0
  },
  {
    "OBJECT_NAME": "STARLINK-5572",
    "OBJECT_ID": "2023-013AZ",
    "EPOCH": "2025-06-21T09:00:56.549664",
    "MEAN_MOTION": 15.02539668,
    "ECCENTRICITY": 0.0001512,
    "INCLINATION": 43.0031,
    "RA_OF_ASC_NODE": 293.0022,
    "ARG_OF_PERICENTER": 263.6996,
    "MEAN_ANOMALY": 96.3674,
    "EPHEMERIS_TYPE": 0,
    "CLASSIFICATION_TYPE": "U",
    "NORAD_CAT_ID": 55378,
    "ELEMENT_SET_NO": 999,
    "REV_AT_EPOCH": 13225,
    "BSTAR": 5.3714e-05,
    "MEAN_MOTION_DOT": 5.22e-06,
    "MEAN_MOTION_DDOT": 0
  },
  {
    "OBJECT_NAME": "STARLINK-5569",
    "OBJECT_ID": "2023-013BA",
    "EPOCH": "2025-06-21T16:45:13.118400",
    "MEAN_MOTION": 15.02532153,
    "ECCENTRICITY": 0.0001397,
    "INCLINATION": 43.0042,
    "RA_OF_ASC_NODE": 291.1204,
    "ARG_OF_PERICENTER": 266.5358,
    "MEAN_ANOMALY": 93.5324,
    "EPHEMERIS_TYPE": 0,
    "CLASSIFICATION_TYPE": "U",
    "NORAD_CAT_ID": 55379,
    "ELEMENT_SET_NO": 999,
    "REV_AT_EPOCH": 13273,
    "BSTAR": 2.4153e-05,
    "MEAN_MOTION_DOT": 1.23e-06,
    "MEAN_MOTION_DDOT": 0
  },
  {
    "OBJECT_NAME": "STARLINK-5571",
    "OBJECT_ID": "2023-013BB",
    "EPOCH": "2025-06-21T05:50:14.725536",
    "MEAN_MOTION": 15.02534102,
    "ECCENTRICITY": 0.000126,
    "INCLINATION": 43.0041,
    "RA_OF_ASC_NODE": 267.7259,
    "ARG_OF_PERICENTER": 271.4296,
    "MEAN_ANOMALY": 88.6402,
    "EPHEMERIS_TYPE": 0,
    "CLASSIFICATION_TYPE": "U",
    "NORAD_CAT_ID": 55380,
    "ELEMENT_SET_NO": 999,
    "REV_AT_EPOCH": 13253,
    "BSTAR": -1.1824e-05,
    "MEAN_MOTION_DOT": -3.63e-06,
    "MEAN_MOTION_DDOT": 0
  },
  {
    "OBJECT_NAME": "STARLINK-5575",
    "OBJECT_ID": "2023-013BC",
    "EPOCH": "2025-06-21T10:17:30.887808",
    "MEAN_MOTION": 15.02530294,
    "ECCENTRICITY": 0.0001024,
    "INCLINATION": 43.0031,
    "RA_OF_ASC_NODE": 292.5371,
    "ARG_OF_PERICENTER": 272.6741,
    "MEAN_ANOMALY": 87.3985,
    "EPHEMERIS_TYPE": 0,
    "CLASSIFICATION_TYPE": "U",
    "NORAD_CAT_ID": 55381,
    "ELEMENT_SET_NO": 999,
    "REV_AT_EPOCH": 13226,
    "BSTAR": 9.8863e-06,
    "MEAN_MOTION_DOT": -7e-07,
    "MEAN_MOTION_DDOT": 0
  },
  {
    "OBJECT_NAME": "STARLINK-5576",
    "OBJECT_ID": "2023-013BD",
    "EPOCH": "2025-06-21T15:14:17.178720",
    "MEAN_MOTION": 15.02534046,
    "ECCENTRICITY": 0.0001396,
    "INCLINATION": 43.0045,
    "RA_OF_ASC_NODE": 291.5082,
    "ARG_OF_PERICENTER": 269.8561,
    "MEAN_ANOMALY": 90.2121,
    "EPHEMERIS_TYPE": 0,
    "CLASSIFICATION_TYPE": "U",
    "NORAD_CAT_ID": 55382,
    "ELEMENT_SET_NO": 999,
    "REV_AT_EPOCH": 13272,
    "BSTAR": 3.2824e-05,
    "MEAN_MOTION_DOT": 2.4e-06,
    "MEAN_MOTION_DDOT": 0
  },
  {
    "OBJECT_NAME": "STARLINK-5531",
    "OBJECT_ID": "2023-013BE",
    "EPOCH": "2025-06-21T13:44:05.686656",
    "MEAN_MOTION": 15.02533027,
    "ECCENTRICITY": 0.0001554,
    "INCLINATION": 43.0036,
    "RA_OF_ASC_NODE": 265.8938,
    "ARG_OF_PERICENTER": 269.3775,
    "MEAN_ANOMALY": 90.6889,
    "EPHEMERIS_TYPE": 0,
    "CLASSIFICATION_TYPE": "U",
    "NORAD_CAT_ID": 55383,
    "ELEMENT_SET_NO": 999,
    "REV_AT_EPOCH": 13258,
    "BSTAR": 2.448e-05,
    "MEAN_MOTION_DOT": 1.27e-06,
    "MEAN_MOTION_DDOT": 0
  },
  {
    "OBJECT_NAME": "STARLINK-5537",
    "OBJECT_ID": "2023-013BF",
    "EPOCH": "2025-06-21T08:48:10.587744",
    "MEAN_MOTION": 15.02533395,
    "ECCENTRICITY": 0.0001436,
    "INCLINATION": 43.0058,
    "RA_OF_ASC_NODE": 292.938,
    "ARG_OF_PERICENTER": 272.4849,
    "MEAN_ANOMALY": 87.5829,
    "EPHEMERIS_TYPE": 0,
    "CLASSIFICATION_TYPE": "U",
    "NORAD_CAT_ID": 55384,
    "ELEMENT_SET_NO": 999,
    "REV_AT_EPOCH": 13225,
    "BSTAR": -1.7599e-06,
    "MEAN_MOTION_DOT": -2.27e-06,
    "MEAN_MOTION_DDOT": 0
  },
  {
    "OBJECT_NAME": "STARLINK-5556",
    "OBJECT_ID": "2023-013BG",
    "EPOCH": "2025-06-21T14:50:18.733632",
    "MEAN_MOTION": 15.02533724,
    "ECCENTRICITY": 0.0001341,
    "INCLINATION": 43.0042,
    "RA_OF_ASC_NODE": 291.3821,
    "ARG_OF_PERICENTER": 267.5973,
    "MEAN_ANOMALY": 92.4716,
    "EPHEMERIS_TYPE": 0,
    "CLASSIFICATION_TYPE": "U",
    "NORAD_CAT_ID": 55385,
    "ELEMENT_SET_NO": 999,
    "REV_AT_EPOCH": 13229,
    "BSTAR": -2.5707e-06,
    "MEAN_MOTION_DOT": -2.38e-06,
    "MEAN_MOTION_DDOT": 0
  },
  {
    "OBJECT_NAME": "STARLINK-5555",
    "OBJECT_ID": "2023-013BH",
    "EPOCH": "2025-06-21T08:32:11.714496",
    "MEAN_MOTION": 15.02533276,
    "ECCENTRICITY": 0.0001435,
    "INCLINATION": 43.0049,
    "RA_OF_ASC_NODE": 292.8505,
    "ARG_OF_PERICENTER": 269.2889,
    "MEAN_ANOMALY": 90.7789,
    "EPHEMERIS_TYPE": 0,
    "CLASSIFICATION_TYPE": "U",
    "NORAD_CAT_ID": 55386,
    "ELEMENT_SET_NO": 999,
    "REV_AT_EPOCH": 13225,
    "BSTAR": -8.3141e-06,
    "MEAN_MOTION_DOT": -3.16e-06,
    "MEAN_MOTION_DDOT": 0
  },
  {
    "OBJECT_NAME": "STARLINK-5085",
    "OBJECT_ID": "2023-014B",
    "EPOCH": "2025-06-21T11:21:10.968768",
    "MEAN_MOTION": 14.98330878,
    "ECCENTRICITY": 0.0002712,
    "INCLINATION": 69.9996,
    "RA_OF_ASC_NODE": 342.9678,
    "ARG_OF_PERICENTER": 269.5949,
    "MEAN_ANOMALY": 90.4899,
    "EPHEMERIS_TYPE": 0,
    "CLASSIFICATION_TYPE": "U",
    "NORAD_CAT_ID": 55392,
    "ELEMENT_SET_NO": 999,
    "REV_AT_EPOCH": 13342,
    "BSTAR": 4.712e-05,
    "MEAN_MOTION_DOT": 4.69e-06,
    "MEAN_MOTION_DDOT": 0
  },
  {
    "OBJECT_NAME": "STARLINK-4786",
    "OBJECT_ID": "2023-014C",
    "EPOCH": "2025-06-21T11:51:32.604768",
    "MEAN_MOTION": 14.98333046,
    "ECCENTRICITY": 0.0003032,
    "INCLINATION": 69.9998,
    "RA_OF_ASC_NODE": 2.9225,
    "ARG_OF_PERICENTER": 267.9155,
    "MEAN_ANOMALY": 92.1656,
    "EPHEMERIS_TYPE": 0,
    "CLASSIFICATION_TYPE": "U",
    "NORAD_CAT_ID": 55393,
    "ELEMENT_SET_NO": 999,
    "REV_AT_EPOCH": 13293,
    "BSTAR": 1.1929e-05,
    "MEAN_MOTION_DOT": 4.9e-07,
    "MEAN_MOTION_DDOT": 0
  },
  {
    "OBJECT_NAME": "STARLINK-5274",
    "OBJECT_ID": "2023-014E",
    "EPOCH": "2025-06-21T19:40:11.711136",
    "MEAN_MOTION": 14.98330199,
    "ECCENTRICITY": 0.0002836,
    "INCLINATION": 70,
    "RA_OF_ASC_NODE": 2.0314,
    "ARG_OF_PERICENTER": 268.574,
    "MEAN_ANOMALY": 91.5095,
    "EPHEMERIS_TYPE": 0,
    "CLASSIFICATION_TYPE": "U",
    "NORAD_CAT_ID": 55395,
    "ELEMENT_SET_NO": 999,
    "REV_AT_EPOCH": 13204,
    "BSTAR": 1.7791e-05,
    "MEAN_MOTION_DOT": 1.19e-06,
    "MEAN_MOTION_DDOT": 0
  }
]