STARLINK-5586           
1 55376U 23013AX  25172.61224665 -.00001065  00000+0 -63761-4 0  9994
2 55376  43.0081 266.1863 0001794 274.0891  85.9746 15.02530650133012
STARLINK-5567           
1 55377U 23013AY  25172.62493119 -.00000556  00000+0 -26115-4 0  9994
2 55377  43.0042 291.4329 0001388 268.0421  92.0262 15.02533505132720
STARLINK-5572           
1 55378U 23013AZ  25172.37565451  .00000522  00000+0  53714-4 0  9992
2 55378  43.0031 293.0022 0001512 263.6996  96.3674 15.02539668132252
STARLINK-5569           
1 55379U 23013BA  25172.69806850  .00000123  00000+0  24153-4 0  9991
2 55379  43.0042 291.1204 0001397 266.5358  93.5324 15.02532153132737
STARLINK-5571           
1 55380U 23013BB  25172.24322599 -.00000363  00000+0 -11824-4 0  9996
2 55380  43.0041 267.7259 0001260 271.4296  88.6402 15.02534102132538
STARLINK-5575           
1 55381U 23013BC  25172.42882972 -.00000070  00000+0  98863-5 0  9996
2 55381  43.0031 292.5371 0001024 272.6741  87.3985 15.02530294132265
STARLINK-5576           
1 55382U 23013BD  25172.63492105  .00000240  00000+0  32824-4 0  9997
2 55382  43.0045 291.5082 0001396 269.8561  90.2121 15.02534046132724
STARLINK-5531           
1 55383U 23013BE  25172.57228804  .00000127  00000+0  24480-4 0  9997
2 55383  43.0036 265.8938 0001554 269.3775  90.6889 15.02533027132584
STARLINK-5537           
1 55384U 23013BF  25172.36678921 -.00000227  00000+0 -17599-5 0  9991
2 55384  43.0058 292.9380 0001436 272.4849  87.5829 15.02533395132258
STARLINK-5556           
1 55385U 23013BG  25172.61827238 -.00000238  00000+0 -25707-5 0  9999
2 55385  43.0042 291.3821 0001341 267.5973  92.4716 15.02533724132293
STARLINK-5555           
1 55386U 23013BH  25172.35569114 -.00000316  00000+0 -83141-5 0  9990
2 55386  43.0049 292.8505 0001435 269.2889  90.7789 15.02533276132254
STARLINK-5085           
1 55392U 23014B   25172.47304362  .00000469  00000+0  47120-4 0  9996
2 55392  69.9996 342.9678 0002712 269.5949  90.4899 14.98330878133422
STARLINK-4786           
1 55393U 23014C   25172.49412737  .00000049  00000+0  11929-4 0  9997
2 55393  69.9998   2.9225 0003032 267.9155  92.1656 14.98333046132938
STARLINK-5274           
1 55395U 23014E   25172.81957999  .00000119  00000+0  17791-4 0  9990
2 55395  70.0000   2.0314 0002836 268.5740  91.5095 14.98330199132043
